[{"OBJECT_NAME":"GPS BIIF-4","OBJECT_ID":"2013-023A","EPOCH":"2026-03-05T23:27:38.183328","MEAN_MOTION":2.00564238,"ECCENTRICITY":0.01416447,"INCLINATION":54.5849,"RA_OF_ASC_NODE":273.1765,"ARG_OF_PERICENTER":49.9392,"MEAN_ANOMALY":311.3205,"EPHEMERIS_TYPE":0,"CLASSIFICATION_TYPE":"U","NORAD_CAT_ID":39166,"ELEMENT_SET_NO":999,"REV_AT_EPOCH":9381,"BSTAR":0,"MEAN_MOTION_DOT":-1.5e-7,"MEAN_MOTION_DDOT":0},{"OBJECT_NAME":"INSAT-3D","OBJECT_ID":"2013-038B","EPOCH":"2026-03-07T14:32:48.510528","MEAN_MOTION":1.0027216,"ECCENTRICITY":0.00016583,"INCLINATION":1.6634,"RA_OF_ASC_NODE":83.8695,"ARG_OF_PERICENTER":250.1631,"MEAN_ANOMALY":178.9722,"EPHEMERIS_TYPE":0,"CLASSIFICATION_TYPE":"U","NORAD_CAT_ID":39216,"ELEMENT_SET_NO":999,"REV_AT_EPOCH":4606,"BSTAR":0,"MEAN_MOTION_DOT":-3.4e-6,"MEAN_MOTION_DDOT":0},{"OBJECT_NAME":"GPS BIIF-5","OBJECT_ID":"2014-008A","EPOCH":"2026-03-06T11:23:36.061152","MEAN_MOTION":2.00553245,"ECCENTRICITY":0.00823708,"INCLINATION":53.6378,"RA_OF_ASC_NODE":153.5106,"ARG_OF_PERICENTER":228.371,"MEAN_ANOMALY":130.9618,"EPHEMERIS_TYPE":0,"CLASSIFICATION_TYPE":"U","NORAD_CAT_ID":39533,"ELEMENT_SET_NO":999,"REV_AT_EPOCH":8762,"BSTAR":0,"MEAN_MOTION_DOT":7.0e-8,"MEAN_MOTION_DDOT":0},{"OBJECT_NAME":"LUCH 5V","OBJECT_ID":"2014-023A","EPOCH":"2026-03-07T00:40:36.633792","MEAN_MOTION":1.00271257,"ECCENTRICITY":0.00030759,"INCLINATION":4.8814,"RA_OF_ASC_NODE":70.7503,"ARG_OF_PERICENTER":285.6629,"MEAN_ANOMALY":273.2102,"EPHEMERIS_TYPE":0,"CLASSIFICATION_TYPE":"U","NORAD_CAT_ID":39727,"ELEMENT_SET_NO":999,"REV_AT_EPOCH":4333,"BSTAR":0,"MEAN_MOTION_DOT":-2.7e-6,"MEAN_MOTION_DDOT":0},{"OBJECT_NAME":"GPS BIIF-6","OBJECT_ID":"2014-026A","EPOCH":"2026-03-06T18:03:52.815168","MEAN_MOTION":2.00568575,"ECCENTRICITY":0.00398378,"INCLINATION":56.5453,"RA_OF_ASC_NODE":335.5082,"ARG_OF_PERICENTER":324.6602,"MEAN_ANOMALY":35.1138,"EPHEMERIS_TYPE":0,"CLASSIFICATION_TYPE":"U","NORAD_CAT_ID":39741,"ELEMENT_SET_NO":999,"REV_AT_EPOCH":8648,"BSTAR":0,"MEAN_MOTION_DOT":-1.0e-6,"MEAN_MOTION_DDOT":0},{"OBJECT_NAME":"GPS BIIF-7","OBJECT_ID":"2014-045A","EPOCH":"2026-03-06T08:12:07.962048","MEAN_MOTION":2.00551673,"ECCENTRICITY":0.00315063,"INCLINATION":55.2826,"RA_OF_ASC_NODE":92.5609,"ARG_OF_PERICENTER":120.4642,"MEAN_ANOMALY":239.907,"EPHEMERIS_TYPE":0,"CLASSIFICATION_TYPE":"U","NORAD_CAT_ID":40105,"ELEMENT_SET_NO":999,"REV_AT_EPOCH":8401,"BSTAR":0,"MEAN_MOTION_DOT":-6.0e-8,"MEAN_MOTION_DDOT":0},{"OBJECT_NAME":"GSAT0201 (GALILEO 5)","OBJECT_ID":"2014-050A","EPOCH":"2026-03-03T05:40:55.999200","MEAN_MOTION":1.85520013,"ECCENTRICITY":0.1657553,"INCLINATION":48.9889,"RA_OF_ASC_NODE":277.7718,"ARG_OF_PERICENTER":175.2875,"MEAN_ANOMALY":186.5034,"EPHEMERIS_TYPE":0,"CLASSIFICATION_TYPE":"U","NORAD_CAT_ID":40128,"ELEMENT_SET_NO":999,"REV_AT_EPOCH":7635,"BSTAR":0,"MEAN_MOTION_DOT":-2.7e-7,"MEAN_MOTION_DDOT":0},{"OBJECT_NAME":"GSAT0202 (GALILEO 6)","OBJECT_ID":"2014-050B","EPOCH":"2026-03-06T04:30:08.141472","MEAN_MOTION":1.8552081,"ECCENTRICITY":0.16589272,"INCLINATION":49.0025,"RA_OF_ASC_NODE":276.7356,"ARG_OF_PERICENTER":176.1364,"MEAN_ANOMALY":185.3302,"EPHEMERIS_TYPE":0,"CLASSIFICATION_TYPE":"U","NORAD_CAT_ID":40129,"ELEMENT_SET_NO":999,"REV_AT_EPOCH":7857,"BSTAR":0,"MEAN_MOTION_DOT":-3.6e-7,"MEAN_MOTION_DDOT":0},{"OBJECT_NAME":"GPS BIIF-8","OBJECT_ID":"2014-068A","EPOCH":"2026-03-06T17:14:22.155072","MEAN_MOTION":2.00570053,"ECCENTRICITY":0.00629025,"INCLINATION":56.9211,"RA_OF_ASC_NODE":34.9026,"ARG_OF_PERICENTER":68.0531,"MEAN_ANOMALY":292.5994,"EPHEMERIS_TYPE":0,"CLASSIFICATION_TYPE":"U","NORAD_CAT_ID":40294,"ELEMENT_SET_NO":999,"REV_AT_EPOCH":8315,"BSTAR":0,"MEAN_MOTION_DOT":-7.7e-7,"MEAN_MOTION_DDOT":0},{"OBJECT_NAME":"GLONASS-K 2","OBJECT_ID":"2014-075A","EPOCH":"2026-03-01T20:09:56.477664","MEAN_MOTION":2.13101099,"ECCENTRICITY":0.00207353,"INCLINATION":63.617,"RA_OF_ASC_NODE":194.0851,"ARG_OF_PERICENTER":205.716,"MEAN_ANOMALY":154.1408,"EPHEMERIS_TYPE":0,"CLASSIFICATION_TYPE":"U","NORAD_CAT_ID":40315,"ELEMENT_SET_NO":999,"REV_AT_EPOCH":8756,"BSTAR":0,"MEAN_MOTION_DOT":-1.5e-7,"MEAN_MOTION_DDOT":0},{"OBJECT_NAME":"GPS BIIF-9","OBJECT_ID":"2015-013A","EPOCH":"2026-03-06T08:25:41.329056","MEAN_MOTION":2.00557521,"ECCENTRICITY":0.01087559,"INCLINATION":53.1859,"RA_OF_ASC_NODE":208.429,"ARG_OF_PERICENTER":39.8054,"MEAN_ANOMALY":320.9401,"EPHEMERIS_TYPE":0,"CLASSIFICATION_TYPE":"U","NORAD_CAT_ID":40534,"ELEMENT_SET_NO":999,"REV_AT_EPOCH":7976,"BSTAR":0,"MEAN_MOTION_DOT":1.6e-7,"MEAN_MOTION_DDOT":0},{"OBJECT_NAME":"GSAT0203 (GALILEO 7)","OBJECT_ID":"2015-017A","EPOCH":"2026-03-05T23:22:37.125984","MEAN_MOTION":1.70475708,"ECCENTRICITY":0.00051696,"INCLINATION":56.821,"RA_OF_ASC_NODE":344.4123,"ARG_OF_PERICENTER":295.903,"MEAN_ANOMALY":64.0652,"EPHEMERIS_TYPE":0,"CLASSIFICATION_TYPE":"U","NORAD_CAT_ID":40544,"ELEMENT_SET_NO":999,"REV_AT_EPOCH":6744,"BSTAR":0,"MEAN_MOTION_DOT":-1.05e-6,"MEAN_MOTION_DDOT":0},{"OBJECT_NAME":"GSAT0204 (GALILEO 8)","OBJECT_ID":"2015-017B","EPOCH":"2026-02-27T04:34:27.961824","MEAN_MOTION":1.7047537,"ECCENTRICITY":0.00043897,"INCLINATION":56.8295,"RA_OF_ASC_NODE":344.6151,"ARG_OF_PERICENTER":286.3298,"MEAN_ANOMALY":73.6287,"EPHEMERIS_TYPE":0,"CLASSIFICATION_TYPE":"U","NORAD_CAT_ID":40545,"ELEMENT_SET_NO":999,"REV_AT_EPOCH":3037,"BSTAR":0,"MEAN_MOTION_DOT":-1.02e-6,"MEAN_MOTION_DDOT":0},{"OBJECT_NAME":"GPS BIIF-10","OBJECT_ID":"2015-033A","EPOCH":"2026-03-07T00:14:44.810304","MEAN_MOTION":2.00561541,"ECCENTRICITY":0.0114563,"INCLINATION":54.0627,"RA_OF_ASC_NODE":271.2974,"ARG_OF_PERICENTER":29.0325,"MEAN_ANOMALY":331.6191,"EPHEMERIS_TYPE":0,"CLASSIFICATION_TYPE":"U","NORAD_CAT_ID":40730,"ELEMENT_SET_NO":999,"REV_AT_EPOCH":7794,"BSTAR":0,"MEAN_MOTION_DOT":-9.0e-8,"MEAN_MOTION_DDOT":0},{"OBJECT_NAME":"METEOSAT-11 (MSG-4)","OBJECT_ID":"2015-034A","EPOCH":"2026-03-07T06:22:38.729856","MEAN_MOTION":1.00267,"ECCENTRICITY":0.0001809,"INCLINATION":2.9449,"RA_OF_ASC_NODE":71.6638,"ARG_OF_PERICENTER":270.7549,"MEAN_ANOMALY":287.5565,"EPHEMERIS_TYPE":0,"CLASSIFICATION_TYPE":"U","NORAD_CAT_ID":40732,"ELEMENT_SET_NO":999,"REV_AT_EPOCH":619,"BSTAR":0,"MEAN_MOTION_DOT":6.0e-7,"MEAN_MOTION_DDOT":0},{"OBJECT_NAME":"GSAT0205 (GALILEO 9)","OBJECT_ID":"2015-045A","EPOCH":"2026-02-12T22:54:15.154848","MEAN_MOTION":1.674108,"ECCENTRICITY":0.03595998,"INCLINATION":53.6403,"RA_OF_ASC_NODE":225.6057,"ARG_OF_PERICENTER":59.9658,"MEAN_ANOMALY":303.5577,"EPHEMERIS_TYPE":0,"CLASSIFICATION_TYPE":"U","NORAD_CAT_ID":40889,"ELEMENT_SET_NO":999,"REV_AT_EPOCH":6421,"BSTAR":0,"MEAN_MOTION_DOT":7.8e-7,"MEAN_MOTION_DDOT":0},{"OBJECT_NAME":"GSAT0206 (GALILEO 10)","OBJECT_ID":"2015-045B","EPOCH":"2026-03-06T19:19:15.881952","MEAN_MOTION":1.70473796,"ECCENTRICITY":0.00036926,"INCLINATION":54.9807,"RA_OF_ASC_NODE":224.4283,"ARG_OF_PERICENTER":50.2396,"MEAN_ANOMALY":309.7351,"EPHEMERIS_TYPE":0,"CLASSIFICATION_TYPE":"U","NORAD_CAT_ID":40890,"ELEMENT_SET_NO":999,"REV_AT_EPOCH":6529,"BSTAR":0,"MEAN_MOTION_DOT":2.3e-7,"MEAN_MOTION_DDOT":0}]
